{"fetched_at":"2026-07-12T07:15:20.031Z","source":"https://celestrak.org/NORAD/elements/gp.php?GROUP=oneweb&FORMAT=JSON","constellation":"oneweb","records":[{"OBJECT_NAME":"ONEWEB-0311","OBJECT_ID":"2021-075Y","EPOCH":"2026-07-11T20:25:23.561760","CLASSIFICATION_TYPE":"U","MEAN_MOTION":13.17648362,"ECCENTRICITY":0.00018791,"INCLINATION":87.9153,"RA_OF_ASC_NODE":0.9572,"ARG_OF_PERICENTER":75.7567,"MEAN_ANOMALY":284.3773,"EPHEMERIS_TYPE":0,"NORAD_CAT_ID":49097,"ELEMENT_SET_NO":999,"REV_AT_EPOCH":23687,"BSTAR":0.000041306995,"MEAN_MOTION_DOT":2.9e-7,"MEAN_MOTION_DDOT":0},{"OBJECT_NAME":"ONEWEB-0312","OBJECT_ID":"2021-075Z","EPOCH":"2026-07-11T20:47:16.330272","CLASSIFICATION_TYPE":"U","MEAN_MOTION":13.17648395,"ECCENTRICITY":0.00020567,"INCLINATION":87.914,"RA_OF_ASC_NODE":0.9633,"ARG_OF_PERICENTER":85.0142,"MEAN_ANOMALY":275.1224,"EPHEMERIS_TYPE":0,"NORAD_CAT_ID":49098,"ELEMENT_SET_NO":999,"REV_AT_EPOCH":23685,"BSTAR":0.000036709605,"MEAN_MOTION_DOT":2.7e-7,"MEAN_MOTION_DDOT":0},{"OBJECT_NAME":"ONEWEB-0313","OBJECT_ID":"2021-075AA","EPOCH":"2026-07-11T20:54:21.256704","CLASSIFICATION_TYPE":"U","MEAN_MOTION":13.17650125,"ECCENTRICITY":0.00017741,"INCLINATION":87.9129,"RA_OF_ASC_NODE":0.9656,"ARG_OF_PERICENTER":86.0858,"MEAN_ANOMALY":274.0476,"EPHEMERIS_TYPE":0,"NORAD_CAT_ID":49099,"ELEMENT_SET_NO":999,"REV_AT_EPOCH":23684,"BSTAR":0.00020908232,"MEAN_MOTION_DOT":9.4e-7,"MEAN_MOTION_DDOT":0},{"OBJECT_NAME":"ONEWEB-0314","OBJECT_ID":"2021-075AB","EPOCH":"2026-07-11T21:55:18.061536","CLASSIFICATION_TYPE":"U","MEAN_MOTION":13.17650845,"ECCENTRICITY":0.00021301,"INCLINATION":87.9149,"RA_OF_ASC_NODE":0.9344,"ARG_OF_PERICENTER":82.8214,"MEAN_ANOMALY":277.316,"EPHEMERIS_TYPE":0,"NORAD_CAT_ID":49100,"ELEMENT_SET_NO":999,"REV_AT_EPOCH":23682,"BSTAR":0.00018932266,"MEAN_MOTION_DOT":8.6e-7,"MEAN_MOTION_DDOT":0},{"OBJECT_NAME":"ONEWEB-0315","OBJECT_ID":"2021-075AC","EPOCH":"2026-07-11T19:59:40.560576","CLASSIFICATION_TYPE":"U","MEAN_MOTION":13.12441727,"ECCENTRICITY":0.00015616,"INCLINATION":87.8954,"RA_OF_ASC_NODE":345.7433,"ARG_OF_PERICENTER":83.0325,"MEAN_ANOMALY":277.0981,"EPHEMERIS_TYPE":0,"NORAD_CAT_ID":49101,"ELEMENT_SET_NO":999,"REV_AT_EPOCH":23840,"BSTAR":-0.0011922344,"MEAN_MOTION_DOT":-0.00000416,"MEAN_MOTION_DDOT":0},{"OBJECT_NAME":"ONEWEB-0316","OBJECT_ID":"2021-075AD","EPOCH":"2026-07-11T19:39:05.133024","CLASSIFICATION_TYPE":"U","MEAN_MOTION":13.18668336,"ECCENTRICITY":0.00024195,"INCLINATION":87.9207,"RA_OF_ASC_NODE":330.5592,"ARG_OF_PERICENTER":107.1739,"MEAN_ANOMALY":252.9658,"EPHEMERIS_TYPE":0,"NORAD_CAT_ID":49102,"ELEMENT_SET_NO":999,"REV_AT_EPOCH":24045,"BSTAR":0.0048682106,"MEAN_MOTION_DOT":0.00001932,"MEAN_MOTION_DDOT":0},{"OBJECT_NAME":"ONEWEB-0317","OBJECT_ID":"2021-075AE","EPOCH":"2026-07-11T20:04:33.328704","CLASSIFICATION_TYPE":"U","MEAN_MOTION":13.12442271,"ECCENTRICITY":0.00024273,"INCLINATION":87.8963,"RA_OF_ASC_NODE":345.7685,"ARG_OF_PERICENTER":109.1575,"MEAN_ANOMALY":250.9817,"EPHEMERIS_TYPE":0,"NORAD_CAT_ID":49103,"ELEMENT_SET_NO":999,"REV_AT_EPOCH":23842,"BSTAR":-0.0011542157,"MEAN_MOTION_DOT":-0.00000402,"MEAN_MOTION_DDOT":0},{"OBJECT_NAME":"ONEWEB-0318","OBJECT_ID":"2021-075AF","EPOCH":"2026-07-11T19:34:02.368416","CLASSIFICATION_TYPE":"U","MEAN_MOTION":13.18686346,"ECCENTRICITY":0.00018384,"INCLINATION":87.9191,"RA_OF_ASC_NODE":330.5598,"ARG_OF_PERICENTER":90.7896,"MEAN_ANOMALY":269.3447,"EPHEMERIS_TYPE":0,"NORAD_CAT_ID":49104,"ELEMENT_SET_NO":999,"REV_AT_EPOCH":24041,"BSTAR":0.000033151725,"MEAN_MOTION_DOT":2.6e-7,"MEAN_MOTION_DDOT":0},{"OBJECT_NAME":"ONEWEB-0319","OBJECT_ID":"2021-075AG","EPOCH":"2026-07-11T20:27:49.062816","CLASSIFICATION_TYPE":"U","MEAN_MOTION":13.17648739,"ECCENTRICITY":0.00016337,"INCLINATION":87.9143,"RA_OF_ASC_NODE":0.9601,"ARG_OF_PERICENTER":78.0717,"MEAN_ANOMALY":282.0597,"EPHEMERIS_TYPE":0,"NORAD_CAT_ID":49105,"ELEMENT_SET_NO":999,"REV_AT_EPOCH":23685,"BSTAR":0.00028514436,"MEAN_MOTION_DOT":0.00000124,"MEAN_MOTION_DDOT":0},{"OBJECT_NAME":"ONEWEB-0323","OBJECT_ID":"2021-075AH","EPOCH":"2026-07-11T19:37:43.759776","CLASSIFICATION_TYPE":"U","MEAN_MOTION":13.12440849,"ECCENTRICITY":0.00017801,"INCLINATION":87.8968,"RA_OF_ASC_NODE":345.7524,"ARG_OF_PERICENTER":78.2245,"MEAN_ANOMALY":281.9083,"EPHEMERIS_TYPE":0,"NORAD_CAT_ID":49106,"ELEMENT_SET_NO":999,"REV_AT_EPOCH":23778,"BSTAR":-0.000081858084,"MEAN_MOTION_DOT":-1.7e-7,"MEAN_MOTION_DDOT":0},{"OBJECT_NAME":"ONEWEB-0329","OBJECT_ID":"2021-075AJ","EPOCH":"2026-07-11T20:39:57.939264","CLASSIFICATION_TYPE":"U","MEAN_MOTION":13.17650218,"ECCENTRICITY":0.00019565,"INCLINATION":87.9143,"RA_OF_ASC_NODE":0.9599,"ARG_OF_PERICENTER":87.848,"MEAN_ANOMALY":272.2876,"EPHEMERIS_TYPE":0,"NORAD_CAT_ID":49107,"ELEMENT_SET_NO":999,"REV_AT_EPOCH":23683,"BSTAR":0.000077510393,"MEAN_MOTION_DOT":4.3e-7,"MEAN_MOTION_DDOT":0},{"OBJECT_NAME":"ONEWEB-0330","OBJECT_ID":"2021-075AK","EPOCH":"2026-07-11T20:45:00.280512","CLASSIFICATION_TYPE":"U","MEAN_MOTION":13.17646212,"ECCENTRICITY":0.0002058,"INCLINATION":87.9143,"RA_OF_ASC_NODE":0.9699,"ARG_OF_PERICENTER":88.611,"MEAN_ANOMALY":271.5257,"EPHEMERIS_TYPE":0,"NORAD_CAT_ID":49108,"ELEMENT_SET_NO":999,"REV_AT_EPOCH":23687,"BSTAR":-0.00013460175,"MEAN_MOTION_DOT":-3.9e-7,"MEAN_MOTION_DDOT":0},{"OBJECT_NAME":"ONEWEB-0292","OBJECT_ID":"2021-083A","EPOCH":"2026-07-11T20:19:48.982944","CLASSIFICATION_TYPE":"U","MEAN_MOTION":13.13470926,"ECCENTRICITY":0.00018555,"INCLINATION":87.8972,"RA_OF_ASC_NODE":315.3295,"ARG_OF_PERICENTER":95.2017,"MEAN_ANOMALY":264.9324,"EPHEMERIS_TYPE":0,"NORAD_CAT_ID":49186,"ELEMENT_SET_NO":999,"REV_AT_EPOCH":23416,"BSTAR":0.000018938412,"MEAN_MOTION_DOT":2e-7,"MEAN_MOTION_DDOT":0},{"OBJECT_NAME":"ONEWEB-0303","OBJECT_ID":"2021-083B","EPOCH":"2026-07-11T19:29:09.615840","CLASSIFICATION_TYPE":"U","MEAN_MOTION":13.18685017,"ECCENTRICITY":0.00018152,"INCLINATION":87.9177,"RA_OF_ASC_NODE":330.5586,"ARG_OF_PERICENTER":93.148,"MEAN_ANOMALY":266.986,"EPHEMERIS_TYPE":0,"NORAD_CAT_ID":49187,"ELEMENT_SET_NO":999,"REV_AT_EPOCH":23322,"BSTAR":-0.00079567499,"MEAN_MOTION_DOT":-0.00000301,"MEAN_MOTION_DDOT":0},{"OBJECT_NAME":"ONEWEB-0306","OBJECT_ID":"2021-083C","EPOCH":"2026-07-11T19:14:36.427200","CLASSIFICATION_TYPE":"U","MEAN_MOTION":13.18684709,"ECCENTRICITY":0.00020419,"INCLINATION":87.9198,"RA_OF_ASC_NODE":330.5501,"ARG_OF_PERICENTER":101.8041,"MEAN_ANOMALY":258.332,"EPHEMERIS_TYPE":0,"NORAD_CAT_ID":49188,"ELEMENT_SET_NO":999,"REV_AT_EPOCH":23326,"BSTAR":-0.000030336016,"MEAN_MOTION_DOT":1e-8,"MEAN_MOTION_DDOT":0},{"OBJECT_NAME":"ONEWEB-0307","OBJECT_ID":"2021-083D","EPOCH":"2026-07-11T20:11:15.968256","CLASSIFICATION_TYPE":"U","MEAN_MOTION":13.13472092,"ECCENTRICITY":0.00018509,"INCLINATION":87.8973,"RA_OF_ASC_NODE":315.3288,"ARG_OF_PERICENTER":96.1041,"MEAN_ANOMALY":264.0299,"EPHEMERIS_TYPE":0,"NORAD_CAT_ID":49189,"ELEMENT_SET_NO":999,"REV_AT_EPOCH":23416,"BSTAR":-0.0004854524,"MEAN_MOTION_DOT":-0.00000165,"MEAN_MOTION_DDOT":0}]}
